{
  "type": "FeatureCollection",
  "features": [
    {
      "type": "Feature",
      "properties": {
        "norad_id": 35065,
        "name": "COSMOS 2251 DEB",
        "group": "cosmos-2251-debris",
        "lat": 19.606380974415515,
        "lon": -152.47519864848678,
        "alt_km": 731.1121084727138,
        "timestamp": "2025-12-08T19:31:49.203083+00:00",
        "meta_object_name": "COSMOS 2251 DEB",
        "meta_object_id": "1993-036AHU",
        "meta_epoch": "2025-12-06T22:35:45.269952",
        "meta_mean_motion": 14.4570153,
        "meta_eccentricity": 0.00196371,
        "meta_inclination": 74.0198,
        "meta_ra_of_asc_node": 205.1597,
        "meta_arg_of_pericenter": 331.0404,
        "meta_mean_anomaly": 28.9662,
        "meta_ephemeris_type": 0,
        "meta_classification_type": "U",
        "meta_norad_cat_id": 35065,
        "meta_element_set_no": 999,
        "meta_rev_at_epoch": 68267,
        "meta_bstar": 0.00070588352,
        "meta_mean_motion_dot": 2.479e-05,
        "meta_mean_motion_ddot": 0,
        "tle_line1": "1 35065U 93036AHU 25340.94149618  .00002479  00000+0  70588-3 0  9998",
        "tle_line2": "2 35065  74.0198 205.1597 0019637 331.0404  28.9662 14.45701530682672"
      },
      "geometry": {
        "type": "Point",
        "coordinates": [
          -152.47519864848678,
          19.606380974415515
        ]
      }
    },
    {
      "type": "Feature",
      "properties": {
        "norad_id": 35071,
        "name": "COSMOS 2251 DEB",
        "group": "cosmos-2251-debris",
        "lat": 32.17467607921818,
        "lon": -8.936887162111134,
        "alt_km": 535.5120315118893,
        "timestamp": "2025-12-08T19:31:49.203092+00:00",
        "meta_object_name": "COSMOS 2251 DEB",
        "meta_object_id": "1993-036AJA",
        "meta_epoch": "2025-12-06T06:11:48.969024",
        "meta_mean_motion": 15.03269957,
        "meta_eccentricity": 0.00683754,
        "meta_inclination": 73.9314,
        "meta_ra_of_asc_node": 186.7627,
        "meta_arg_of_pericenter": 85.1943,
        "meta_mean_anomaly": 275.7048,
        "meta_ephemeris_type": 0,
        "meta_classification_type": "U",
        "meta_norad_cat_id": 35071,
        "meta_element_set_no": 999,
        "meta_rev_at_epoch": 67439,
        "meta_bstar": 0.0011992827,
        "meta_mean_motion_dot": 0.00017109,
        "meta_mean_motion_ddot": 0,
        "tle_line1": "1 35071U 93036AJA 25340.25820566  .00017109  00000+0  11993-2 0  9997",
        "tle_line2": "2 35071  73.9314 186.7627 0068375  85.1943 275.7048 15.03269957674390"
      },
      "geometry": {
        "type": "Point",
        "coordinates": [
          -8.936887162111134,
          32.17467607921818
        ]
      }
    },
    {
      "type": "Feature",
      "properties": {
        "norad_id": 35073,
        "name": "COSMOS 2251 DEB",
        "group": "cosmos-2251-debris",
        "lat": -60.67383764934529,
        "lon": -52.13232278899429,
        "alt_km": 578.6508444393921,
        "timestamp": "2025-12-08T19:31:49.203101+00:00",
        "meta_object_name": "COSMOS 2251 DEB",
        "meta_object_id": "1993-036AJC",
        "meta_epoch": "2025-12-06T06:59:58.933248",
        "meta_mean_motion": 14.99991639,
        "meta_eccentricity": 0.00102924,
        "meta_inclination": 74.0009,
        "meta_ra_of_asc_node": 343.7168,
        "meta_arg_of_pericenter": 84.8418,
        "meta_mean_anomaly": 275.3943,
        "meta_ephemeris_type": 0,
        "meta_classification_type": "U",
        "meta_norad_cat_id": 35073,
        "meta_element_set_no": 999,
        "meta_rev_at_epoch": 67382,
        "meta_bstar": 0.0044204403,
        "meta_mean_motion_dot": 0.00055435,
        "meta_mean_motion_ddot": 0,
        "tle_line1": "1 35073U 93036AJC 25340.29165432  .00055435  00000+0  44204-2 0  9992",
        "tle_line2": "2 35073  74.0009 343.7168 0010292  84.8418 275.3943 14.99991639673828"
      },
      "geometry": {
        "type": "Point",
        "coordinates": [
          -52.13232278899429,
          -60.67383764934529
        ]
      }
    },
    {
      "type": "Feature",
      "properties": {
        "norad_id": 35284,
        "name": "COSMOS 2251 DEB",
        "group": "cosmos-2251-debris",
        "lat": 0.7457342782422322,
        "lon": 91.43918667950179,
        "alt_km": 778.2455717986895,
        "timestamp": "2025-12-08T19:31:49.203110+00:00",
        "meta_object_name": "COSMOS 2251 DEB",
        "meta_object_id": "1993-036AJN",
        "meta_epoch": "2025-12-07T06:41:11.898816",
        "meta_mean_motion": 14.38308297,
        "meta_eccentricity": 0.00165721,
        "meta_inclination": 74.049,
        "meta_ra_of_asc_node": 274.4779,
        "meta_arg_of_pericenter": 351.9978,
        "meta_mean_anomaly": 161.4544,
        "meta_ephemeris_type": 0,
        "meta_classification_type": "U",
        "meta_norad_cat_id": 35284,
        "meta_element_set_no": 999,
        "meta_rev_at_epoch": 65447,
        "meta_bstar": 0.00033658929,
        "meta_mean_motion_dot": 1e-05,
        "meta_mean_motion_ddot": 0,
        "tle_line1": "1 35284U 93036AJN 25341.27860994  .00001000  00000+0  33659-3 0  9992",
        "tle_line2": "2 35284  74.0490 274.4779 0016572 351.9978 161.4544 14.38308297654477"
      },
      "geometry": {
        "type": "Point",
        "coordinates": [
          91.43918667950179,
          0.7457342782422322
        ]
      }
    },
    {
      "type": "Feature",
      "properties": {
        "norad_id": 35287,
        "name": "COSMOS 2251 DEB",
        "group": "cosmos-2251-debris",
        "lat": 21.193948149825683,
        "lon": -70.27480273854111,
        "alt_km": 757.6198309228294,
        "timestamp": "2025-12-08T19:31:49.203119+00:00",
        "meta_object_name": "COSMOS 2251 DEB",
        "meta_object_id": "1993-036AJR",
        "meta_epoch": "2025-12-08T02:47:53.746656",
        "meta_mean_motion": 14.36369508,
        "meta_eccentricity": 0.00173478,
        "meta_inclination": 74.0303,
        "meta_ra_of_asc_node": 284.6307,
        "meta_arg_of_pericenter": 22.5668,
        "meta_mean_anomaly": 356.0549,
        "meta_ephemeris_type": 0,
        "meta_classification_type": "U",
        "meta_norad_cat_id": 35287,
        "meta_element_set_no": 999,
        "meta_rev_at_epoch": 86826,
        "meta_bstar": 0.00024246061,
        "meta_mean_motion_dot": 6.85e-06,
        "meta_mean_motion_ddot": 0,
        "tle_line1": "1 35287U 93036AJR 25342.11659429  .00000685  00000+0  24246-3 0  9998",
        "tle_line2": "2 35287  74.0303 284.6307 0017347  22.5668 356.0549 14.36369508868262"
      },
      "geometry": {
        "type": "Point",
        "coordinates": [
          -70.27480273854111,
          21.193948149825683
        ]
      }
    },
    {
      "type": "Feature",
      "properties": {
        "norad_id": 35288,
        "name": "COSMOS 2251 DEB",
        "group": "cosmos-2251-debris",
        "lat": 54.35661847961649,
        "lon": 179.10547640166246,
        "alt_km": 689.7190490548155,
        "timestamp": "2025-12-08T19:31:49.203128+00:00",
        "meta_object_name": "COSMOS 2251 DEB",
        "meta_object_id": "1993-036AJS",
        "meta_epoch": "2025-12-05T20:30:59.855616",
        "meta_mean_motion": 14.65344236,
        "meta_eccentricity": 0.00396154,
        "meta_inclination": 73.9509,
        "meta_ra_of_asc_node": 28.4958,
        "meta_arg_of_pericenter": 262.8912,
        "meta_mean_anomaly": 96.775,
        "meta_ephemeris_type": 0,
        "meta_classification_type": "U",
        "meta_norad_cat_id": 35288,
        "meta_element_set_no": 999,
        "meta_rev_at_epoch": 87777,
        "meta_bstar": 0.0019659658,
        "meta_mean_motion_dot": 0.00010724,
        "meta_mean_motion_ddot": 0,
        "tle_line1": "1 35288U 93036AJS 25339.85485944  .00010724  00000+0  19660-2 0  9993",
        "tle_line2": "2 35288  73.9509  28.4958 0039615 262.8912  96.7750 14.65344236877779"
      },
      "geometry": {
        "type": "Point",
        "coordinates": [
          179.10547640166246,
          54.35661847961649
        ]
      }
    },
    {
      "type": "Feature",
      "properties": {
        "norad_id": 35290,
        "name": "COSMOS 2251 DEB",
        "group": "cosmos-2251-debris",
        "lat": -11.28200428253787,
        "lon": -109.53354913334378,
        "alt_km": 630.7794415328799,
        "timestamp": "2025-12-08T19:31:49.203137+00:00",
        "meta_object_name": "COSMOS 2251 DEB",
        "meta_object_id": "1993-036AJU",
        "meta_epoch": "2025-12-07T23:12:07.404768",
        "meta_mean_motion": 14.80158124,
        "meta_eccentricity": 0.00028016,
        "meta_inclination": 74.0056,
        "meta_ra_of_asc_node": 68.8573,
        "meta_arg_of_pericenter": 200.708,
        "meta_mean_anomaly": 159.3983,
        "meta_ephemeris_type": 0,
        "meta_classification_type": "U",
        "meta_norad_cat_id": 35290,
        "meta_element_set_no": 999,
        "meta_rev_at_epoch": 87887,
        "meta_bstar": 0.0025201941,
        "meta_mean_motion_dot": 0.00019162,
        "meta_mean_motion_ddot": 0,
        "tle_line1": "1 35290U 93036AJU 25341.96675237  .00019162  00000+0  25202-2 0  9991",
        "tle_line2": "2 35290  74.0056  68.8573 0002801 200.7080 159.3983 14.80158124878878"
      },
      "geometry": {
        "type": "Point",
        "coordinates": [
          -109.53354913334378,
          -11.28200428253787
        ]
      }
    }
  ]
}